[{"OBJECT_NAME":"STARLINK-34977","OBJECT_ID":"2025-179L","EPOCH":"2026-03-09T16:02:19.936320","MEAN_MOTION":15.05645126,"ECCENTRICITY":2.385e-5,"INCLINATION":97.6037,"RA_OF_ASC_NODE":112.9186,"ARG_OF_PERICENTER":77.8914,"MEAN_ANOMALY":282.2339,"EPHEMERIS_TYPE":0,"CLASSIFICATION_TYPE":"U","NORAD_CAT_ID":65245,"ELEMENT_SET_NO":999,"REV_AT_EPOCH":3178,"BSTAR":2.4280506e-5,"MEAN_MOTION_DOT":2.9e-6,"MEAN_MOTION_DDOT":0},{"OBJECT_NAME":"DEORBITSAIL","OBJECT_ID":"2015-032E","EPOCH":"2026-03-09T13:39:47.460384","MEAN_MOTION":15.02284863,"ECCENTRICITY":0.0012066,"INCLINATION":97.5981,"RA_OF_ASC_NODE":287.3228,"ARG_OF_PERICENTER":211.0438,"MEAN_ANOMALY":149.0075,"EPHEMERIS_TYPE":0,"CLASSIFICATION_TYPE":"U","NORAD_CAT_ID":40719,"ELEMENT_SET_NO":999,"REV_AT_EPOCH":57628,"BSTAR":0.0007398,"MEAN_MOTION_DOT":9.73e-5,"MEAN_MOTION_DDOT":0}]
